start=new Date('2022-12-01T00:00:00.000Z').valueOf();
sats=[{"CLASSIFICATION_TYPE":"U","ELEMENT_SET_NO":"999","NORAD_CAT_ID":"52993","REF_FRAME":"TEME","OBJECT_TYPE":"PAYLOAD","SEMIMAJOR_AXIS":"6917.908","MEAN_MOTION_DDOT":"0.0000000000000","APOAPSIS":"541.553","EPOCH":"2022-11-30T12:49:39.192960","REV_AT_EPOCH":"2241","PERIOD":"95.438","CENTER_NAME":"EARTH","RA_OF_ASC_NODE":"59.3959","TIME_SYSTEM":"UTC","MEAN_ANOMALY":"332.6015","OBJECT_NAME":"STARLINK-4264","COUNTRY_CODE":"US","OBJECT_ID":"2022-076H","INCLINATION":"53.2193","ECCENTRICITY":"0.00025730","SITE":"AFETR","DECAY_DATE":null,"LAUNCH_DATE":"2022-07-07","MEAN_ELEMENT_THEORY":"SGP4","EPHEMERIS_TYPE":"0","MEAN_MOTION_DOT":"0.00000043","BSTAR":"0.00002082600000","ARG_OF_PERICENTER":"27.5113","TLE_LINE2":"2 52993  53.2193  59.3959 0002573  27.5113 332.6015 15.08830839 22413","GP_ID":"219177566","TLE_LINE1":"1 52993U 22076H   22334.53448140  .00000043  00000-0  20826-4 0  9997","FILE":"3675646","RCS_SIZE":"LARGE","PERIAPSIS":"537.993","MEAN_MOTION":"15.08830839"},{"NORAD_CAT_ID":"52994","ELEMENT_SET_NO":"999","REF_FRAME":"TEME","OBJECT_TYPE":"PAYLOAD","CLASSIFICATION_TYPE":"U","EPOCH":"2022-11-30T15:55:07.349664","SEMIMAJOR_AXIS":"6917.902","MEAN_MOTION_DDOT":"0.0000000000000","APOAPSIS":"541.743","MEAN_ANOMALY":"325.8198","CENTER_NAME":"EARTH","RA_OF_ASC_NODE":"58.8110","TIME_SYSTEM":"UTC","REV_AT_EPOCH":"2243","PERIOD":"95.438","INCLINATION":"53.2187","OBJECT_ID":"2022-076J","COUNTRY_CODE":"US","OBJECT_NAME":"STARLINK-4256","DECAY_DATE":null,"LAUNCH_DATE":"2022-07-07","ECCENTRICITY":"0.00028560","SITE":"AFETR","MEAN_MOTION_DOT":"-0.00000341","BSTAR":"-0.00000331710000","ARG_OF_PERICENTER":"34.2978","TLE_LINE2":"2 52994  53.2187  58.8110 0002856  34.2978 325.8198 15.08832859 22430","MEAN_ELEMENT_THEORY":"SGP4","EPHEMERIS_TYPE":"0","FILE":"3676429","RCS_SIZE":"LARGE","TLE_LINE1":"1 52994U 22076J   22334.66327951 -.00000341  00000-0 -33171-5 0  9999","GP_ID":"219218552","MEAN_MOTION":"15.08832859","PERIAPSIS":"537.791"},{"INCLINATION":"53.2172","COUNTRY_CODE":"US","OBJECT_ID":"2022-076K","OBJECT_NAME":"STARLINK-4296","MEAN_ANOMALY":"325.3677","RA_OF_ASC_NODE":"58.8360","CENTER_NAME":"EARTH","TIME_SYSTEM":"UTC","REV_AT_EPOCH":"2243","PERIOD":"95.438","EPOCH":"2022-11-30T15:44:31.800768","MEAN_MOTION_DDOT":"0.0000000000000","SEMIMAJOR_AXIS":"6917.892","APOAPSIS":"542.013","ELEMENT_SET_NO":"999","NORAD_CAT_ID":"52995","REF_FRAME":"TEME","OBJECT_TYPE":"PAYLOAD","CLASSIFICATION_TYPE":"U","MEAN_MOTION":"15.08836219","PERIAPSIS":"537.501","FILE":"3676429","RCS_SIZE":"LARGE","TLE_LINE1":"1 52995U 22076K   22334.65592362 -.00000626  00000-0 -21159-4 0  9997","GP_ID":"219218714","MEAN_MOTION_DOT":"-0.00000626","BSTAR":"-0.00002115900000","ARG_OF_PERICENTER":"34.7528","TLE_LINE2":"2 52995  53.2172  58.8360 0003261  34.7528 325.3677 15.08836219 22430","MEAN_ELEMENT_THEORY":"SGP4","EPHEMERIS_TYPE":"0","DECAY_DATE":null,"LAUNCH_DATE":"2022-07-07","ECCENTRICITY":"0.00032610","SITE":"AFETR"},{"SEMIMAJOR_AXIS":"6917.900","MEAN_MOTION_DDOT":"0.0000000000000","APOAPSIS":"541.508","EPOCH":"2022-11-30T15:49:49.459008","CLASSIFICATION_TYPE":"U","NORAD_CAT_ID":"52996","ELEMENT_SET_NO":"999","OBJECT_TYPE":"PAYLOAD","REF_FRAME":"TEME","OBJECT_NAME":"STARLINK-4295","OBJECT_ID":"2022-076L","COUNTRY_CODE":"US","INCLINATION":"53.2200","REV_AT_EPOCH":"2243","PERIOD":"95.438","CENTER_NAME":"EARTH","RA_OF_ASC_NODE":"58.8282","TIME_SYSTEM":"UTC","MEAN_ANOMALY":"328.3661","MEAN_ELEMENT_THEORY":"SGP4","EPHEMERIS_TYPE":"0","MEAN_MOTION_DOT":"0.00000405","BSTAR":"0.00004355800000","ARG_OF_PERICENTER":"31.7483","TLE_LINE2":"2 52996  53.2200  58.8282 0002520  31.7483 328.3661 15.08833600 22437","ECCENTRICITY":"0.00025200","SITE":"AFETR","DECAY_DATE":null,"LAUNCH_DATE":"2022-07-07","PERIAPSIS":"538.022","MEAN_MOTION":"15.08833600","TLE_LINE1":"1 52996U 22076L   22334.65960022  .00000405  00000-0  43558-4 0  9990","GP_ID":"219217847","RCS_SIZE":"LARGE","FILE":"3676429"},{"EPOCH":"2022-11-30T17:04:01.778016","MEAN_MOTION_DDOT":"0.0000000000000","SEMIMAJOR_AXIS":"6917.902","APOAPSIS":"541.383","ELEMENT_SET_NO":"999","NORAD_CAT_ID":"52997","REF_FRAME":"TEME","OBJECT_TYPE":"PAYLOAD","CLASSIFICATION_TYPE":"U","INCLINATION":"53.2171","OBJECT_ID":"2022-076M","COUNTRY_CODE":"US","OBJECT_NAME":"STARLINK-4301","MEAN_ANOMALY":"318.4381","RA_OF_ASC_NODE":"58.5795","TIME_SYSTEM":"UTC","CENTER_NAME":"EARTH","REV_AT_EPOCH":"2244","PERIOD":"95.438","BSTAR":"-0.00007247800000","MEAN_MOTION_DOT":"-0.00001441","ARG_OF_PERICENTER":"41.6788","TLE_LINE2":"2 52997  53.2171  58.5795 0002336  41.6788 318.4381 15.08832933 22442","MEAN_ELEMENT_THEORY":"SGP4","EPHEMERIS_TYPE":"0","DECAY_DATE":null,"LAUNCH_DATE":"2022-07-07","ECCENTRICITY":"0.00023360","SITE":"AFETR","MEAN_MOTION":"15.08832933","PERIAPSIS":"538.151","RCS_SIZE":"LARGE","FILE":"3676429","TLE_LINE1":"1 52997U 22076M   22334.71113169 -.00001441  00000-0 -72478-4 0  9996","GP_ID":"219218379"},{"TLE_LINE1":"1 52998U 22076N   22334.52072124  .00000674  00000-0  60481-4 0  9997","GP_ID":"219178076","RCS_SIZE":"LARGE","FILE":"3675646","PERIAPSIS":"538.392","MEAN_MOTION":"15.08836010","ECCENTRICITY":"0.00019740","SITE":"AFETR","DECAY_DATE":null,"LAUNCH_DATE":"2022-07-07","MEAN_ELEMENT_THEORY":"SGP4","EPHEMERIS_TYPE":"0","MEAN_MOTION_DOT":"0.00000674","ARG_OF_PERICENTER":"50.6449","BSTAR":"0.00006048100000","TLE_LINE2":"2 52998  53.2202  59.4558 0001974  50.6449 309.4717 15.08836010 22416","CENTER_NAME":"EARTH","RA_OF_ASC_NODE":"59.4558","TIME_SYSTEM":"UTC","PERIOD":"95.438","REV_AT_EPOCH":"2241","MEAN_ANOMALY":"309.4717","OBJECT_NAME":"STARLINK-4254","INCLINATION":"53.2202","OBJECT_ID":"2022-076N","COUNTRY_CODE":"US","CLASSIFICATION_TYPE":"U","NORAD_CAT_ID":"52998","ELEMENT_SET_NO":"999","REF_FRAME":"TEME","OBJECT_TYPE":"PAYLOAD","MEAN_MOTION_DDOT":"0.0000000000000","SEMIMAJOR_AXIS":"6917.893","APOAPSIS":"541.123","EPOCH":"2022-11-30T12:29:50.315136"},{"PERIAPSIS":"538.628","MEAN_MOTION":"15.08840075","TLE_LINE1":"1 52999U 22076P   22334.63751622  .00000913  00000-0  75437-4 0  9990","GP_ID":"219219050","FILE":"3676429","RCS_SIZE":"LARGE","MEAN_ELEMENT_THEORY":"SGP4","EPHEMERIS_TYPE":"0","BSTAR":"0.00007543700000","MEAN_MOTION_DOT":"0.00000913","ARG_OF_PERICENTER":"57.0621","TLE_LINE2":"2 52999  53.2192  58.9072 0001615  57.0621 303.0526 15.08840075 22431","ECCENTRICITY":"0.00016150","SITE":"AFETR","DECAY_DATE":null,"LAUNCH_DATE":"2022-07-07","OBJECT_NAME":"STARLINK-4217","INCLINATION":"53.2192","OBJECT_ID":"2022-076P","COUNTRY_CODE":"US","RA_OF_ASC_NODE":"58.9072","CENTER_NAME":"EARTH","TIME_SYSTEM":"UTC","REV_AT_EPOCH":"2243","PERIOD":"95.438","MEAN_ANOMALY":"303.0526","MEAN_MOTION_DDOT":"0.0000000000000","SEMIMAJOR_AXIS":"6917.880","APOAPSIS":"540.862","EPOCH":"2022-11-30T15:18:01.401408","CLASSIFICATION_TYPE":"U","NORAD_CAT_ID":"52999","ELEMENT_SET_NO":"999","OBJECT_TYPE":"PAYLOAD","REF_FRAME":"TEME"},{"PERIOD":"95.437","REV_AT_EPOCH":"2242","RA_OF_ASC_NODE":"59.1601","TIME_SYSTEM":"UTC","CENTER_NAME":"EARTH","MEAN_ANOMALY":"330.8606","OBJECT_NAME":"STARLINK-4194","COUNTRY_CODE":"US","OBJECT_ID":"2022-076Q","INCLINATION":"53.2201","CLASSIFICATION_TYPE":"U","OBJECT_TYPE":"PAYLOAD","REF_FRAME":"TEME","ELEMENT_SET_NO":"999","NORAD_CAT_ID":"53000","APOAPSIS":"541.446","SEMIMAJOR_AXIS":"6917.877","MEAN_MOTION_DDOT":"0.0000000000000","EPOCH":"2022-11-30T14:03:50.335200","GP_ID":"219218207","TLE_LINE1":"1 53000U 22076Q   22334.58599925  .00000775  00000-0  66824-4 0  9990","RCS_SIZE":"LARGE","FILE":"3676429","PERIAPSIS":"538.039","MEAN_MOTION":"15.08840991","SITE":"AFETR","ECCENTRICITY":"0.00024620","LAUNCH_DATE":"2022-07-07","DECAY_DATE":null,"EPHEMERIS_TYPE":"0","MEAN_ELEMENT_THEORY":"SGP4","TLE_LINE2":"2 53000  53.2201  59.1601 0002462  29.2524 330.8606 15.08840991 22424","BSTAR":"0.00006682400000","MEAN_MOTION_DOT":"0.00000775","ARG_OF_PERICENTER":"29.2524"},{"OBJECT_ID":"2022-076R","COUNTRY_CODE":"US","INCLINATION":"53.2206","OBJECT_NAME":"STARLINK-4190","MEAN_ANOMALY":"306.1134","REV_AT_EPOCH":"2240","PERIOD":"95.438","RA_OF_ASC_NODE":"59.8181","CENTER_NAME":"EARTH","TIME_SYSTEM":"UTC","EPOCH":"2022-11-30T10:26:34.287648","MEAN_MOTION_DDOT":"0.0000000000000","SEMIMAJOR_AXIS":"6917.902","APOAPSIS":"540.909","ELEMENT_SET_NO":"999","NORAD_CAT_ID":"53001","OBJECT_TYPE":"PAYLOAD","REF_FRAME":"TEME","CLASSIFICATION_TYPE":"U","MEAN_MOTION":"15.08832849","PERIAPSIS":"538.625","FILE":"3676429","RCS_SIZE":"LARGE","TLE_LINE1":"1 53001U 22076R   22334.43511907  .00000583  00000-0  54761-4 0  9993","GP_ID":"219218021","MEAN_MOTION_DOT":"0.00000583","BSTAR":"0.00005476100000","ARG_OF_PERICENTER":"54.0011","TLE_LINE2":"2 53001  53.2206  59.8181 0001651  54.0011 306.1134 15.08832849 22409","MEAN_ELEMENT_THEORY":"SGP4","EPHEMERIS_TYPE":"0","DECAY_DATE":null,"LAUNCH_DATE":"2022-07-07","ECCENTRICITY":"0.00016510","SITE":"AFETR"},{"MEAN_ANOMALY":"324.0675","REV_AT_EPOCH":"2241","PERIOD":"95.438","CENTER_NAME":"EARTH","RA_OF_ASC_NODE":"59.4680","TIME_SYSTEM":"UTC","OBJECT_ID":"2022-076S","COUNTRY_CODE":"US","INCLINATION":"53.2192","OBJECT_NAME":"STARLINK-4121","NORAD_CAT_ID":"53002","ELEMENT_SET_NO":"999","OBJECT_TYPE":"PAYLOAD","REF_FRAME":"TEME","CLASSIFICATION_TYPE":"U","EPOCH":"2022-11-30T12:23:09.003552","SEMIMAJOR_AXIS":"6917.889","MEAN_MOTION_DDOT":"0.0000000000000","APOAPSIS":"541.302","FILE":"3675646","RCS_SIZE":"LARGE","TLE_LINE1":"1 53002U 22076S   22334.51607643  .00000401  00000-0  43323-4 0  9997","GP_ID":"219177738","MEAN_MOTION":"15.08837106","PERIAPSIS":"538.206","DECAY_DATE":null,"LAUNCH_DATE":"2022-07-07","ECCENTRICITY":"0.00022380","SITE":"AFETR","ARG_OF_PERICENTER":"36.0467","MEAN_MOTION_DOT":"0.00000401","BSTAR":"0.00004332300000","TLE_LINE2":"2 53002  53.2192  59.4680 0002238  36.0467 324.0675 15.08837106 22412","MEAN_ELEMENT_THEORY":"SGP4","EPHEMERIS_TYPE":"0"}];
